[{"OBJECT_NAME":"STARLINK-36205","OBJECT_ID":"2025-298Z","EPOCH":"2026-03-09T22:26:49.176096","MEAN_MOTION":14.9914569,"ECCENTRICITY":0.00028056,"INCLINATION":70.0015,"RA_OF_ASC_NODE":13.8601,"ARG_OF_PERICENTER":265.4327,"MEAN_ANOMALY":94.6512,"EPHEMERIS_TYPE":0,"CLASSIFICATION_TYPE":"U","NORAD_CAT_ID":67098,"ELEMENT_SET_NO":999,"REV_AT_EPOCH":1325,"BSTAR":4.5969871e-5,"MEAN_MOTION_DOT":4.67e-6,"MEAN_MOTION_DDOT":0},{"OBJECT_NAME":"CZ-4C R\/B","OBJECT_ID":"2024-186B","EPOCH":"2026-03-09T22:51:12.491424","MEAN_MOTION":15.07425891,"ECCENTRICITY":0.00475116,"INCLINATION":97.8722,"RA_OF_ASC_NODE":96.5934,"ARG_OF_PERICENTER":122.4234,"MEAN_ANOMALY":238.1602,"EPHEMERIS_TYPE":0,"CLASSIFICATION_TYPE":"U","NORAD_CAT_ID":61572,"ELEMENT_SET_NO":999,"REV_AT_EPOCH":7672,"BSTAR":0.00027865777,"MEAN_MOTION_DOT":4.262e-5,"MEAN_MOTION_DDOT":0}]
